sat05117
1 05117U 71028A   20046.78224080  .00000947  00000-0  26350-4 0  9995
2 05117  81.2618 285.3051 0010911  31.3587  16.6901 15.35679791661802
